{"type": "FeatureCollection", "features": [ {"type": "Feature", "properties": {"norad_id": 66550, "name": "CZ-7A R/B", "group": "last-30-days", "lat": 8.790224155280313, "lon": -51.263714811749544, "alt_km": 21443.341211137427, "timestamp": "2025-12-08T23:34:02.739884+00:00", "meta": {"OBJECT_NAME": "CZ-7A R/B", "OBJECT_ID": "2025-277B", "EPOCH": "2025-12-08T10:49:33.009600", "MEAN_MOTION": 2.55273447, "ECCENTRICITY": 0.71238594, "INCLINATION": 14.4003, "RA_OF_ASC_NODE": 272.0222, "ARG_OF_PERICENTER": 184.9879, "MEAN_ANOMALY": 159.498, "EPHEMERIS_TYPE": 0, "CLASSIFICATION_TYPE": "U", "NORAD_CAT_ID": 66550, "ELEMENT_SET_NO": 999, "REV_AT_EPOCH": 23, "BSTAR": 0.0028793489, "MEAN_MOTION_DOT": 0.01610432, "MEAN_MOTION_DDOT": 9.12994e-07}, "tle": {"line1": "1 66550U 25277B   25342.45107650  .01610432  91299-6  28793-2 0  9993", "line2": "2 66550  14.4003 272.0222 7123859 184.9879 159.4980  2.55273447   234"}}, "geometry": {"type": "Point", "coordinates": [-51.263714811749544, 8.790224155280313]}}, {"type": "Feature", "properties": {"norad_id": 66551, "name": "UNKNOWN", "group": "last-30-days", "lat": -10.131216821491106, "lon": -162.28608132307755, "alt_km": 339.86765832556557, "timestamp": "2025-12-08T23:34:02.739895+00:00", "meta": {"OBJECT_NAME": "UNKNOWN", "OBJECT_ID": "2025-271AE", "EPOCH": "2025-12-02T16:00:03.000096", "MEAN_MOTION": 15.87051116, "ECCENTRICITY": 7.17e-05, "INCLINATION": 53.1571, "RA_OF_ASC_NODE": 236.7807, "ARG_OF_PERICENTER": 110.7411, "MEAN_ANOMALY": 313.9012, "EPHEMERIS_TYPE": 0, "CLASSIFICATION_TYPE": "U", "NORAD_CAT_ID": 66551, "ELEMENT_SET_NO": 999, "REV_AT_EPOCH": 262, "BSTAR": -0.0074303, "MEAN_MOTION_DOT": -0.01709685, "MEAN_MOTION_DDOT": 0}, "tle": {"line1": "1 66551U 25271AE  25336.66670139 -.01709685  00000+0 -74303-2 0  9993", "line2": "2 66551  53.1571 236.7807 0000717 110.7411 313.9012 15.87051116  2624"}}, "geometry": {"type": "Point", "coordinates": [-162.28608132307755, -10.131216821491106]}}, {"type": "Feature", "properties": {"norad_id": 66554, "name": "GLOBAL-33", "group": "last-30-days", "lat": -10.339543093533072, "lon": -89.62511421832411, "alt_km": 475.4275430704365, "timestamp": "2025-12-08T23:34:02.739908+00:00", "meta": {"OBJECT_NAME": "GLOBAL-33", "OBJECT_ID": "2025-267A", "EPOCH": "2025-12-08T13:19:37.894080", "MEAN_MOTION": 15.31498164, "ECCENTRICITY": 0.00047931, "INCLINATION": 42.0201, "RA_OF_ASC_NODE": 81.1482, "ARG_OF_PERICENTER": 22.7031, "MEAN_ANOMALY": 337.4018, "EPHEMERIS_TYPE": 0, "CLASSIFICATION_TYPE": "U", "NORAD_CAT_ID": 66554, "ELEMENT_SET_NO": 999, "REV_AT_EPOCH": 276, "BSTAR": 0.00059832068, "MEAN_MOTION_DOT": 0.00018392, "MEAN_MOTION_DDOT": 0}, "tle": {"line1": "1 66554U 25267A   25342.55529970  .00018392  00000+0  59832-3 0  9998", "line2": "2 66554  42.0201  81.1482 0004793  22.7031 337.4018 15.31498164  2762"}}, "geometry": {"type": "Point", "coordinates": [-89.62511421832411, -10.339543093533072]}}, {"type": "Feature", "properties": {"norad_id": 66555, "name": "ELECTRON KICK STAGE R/B", "group": "last-30-days", "lat": -37.663568519786885, "lon": -42.42489384482153, "alt_km": 474.7884187032996, "timestamp": "2025-12-08T23:34:02.739919+00:00", "meta": {"OBJECT_NAME": "ELECTRON KICK STAGE R/B", "OBJECT_ID": "2025-267B", "EPOCH": "2025-12-08T13:06:52.531776", "MEAN_MOTION": 15.32503128, "ECCENTRICITY": 0.00068692, "INCLINATION": 42.0196, "RA_OF_ASC_NODE": 81.083, "ARG_OF_PERICENTER": 20.9024, "MEAN_ANOMALY": 339.2093, "EPHEMERIS_TYPE": 0, "CLASSIFICATION_TYPE": "U", "NORAD_CAT_ID": 66555, "ELEMENT_SET_NO": 999, "REV_AT_EPOCH": 276, "BSTAR": 0.00096183495, "MEAN_MOTION_DOT": 0.00030739, "MEAN_MOTION_DDOT": 0}, "tle": {"line1": "1 66555U 25267B   25342.54644134  .00030739  00000+0  96183-3 0  9997", "line2": "2 66555  42.0196  81.0830 0006869  20.9024 339.2093 15.32503128  2761"}}, "geometry": {"type": "Point", "coordinates": [-42.42489384482153, -37.663568519786885]}}, {"type": "Feature", "properties": {"norad_id": 66557, "name": "STARLINK-35699", "group": "last-30-days", "lat": -15.374534138210228, "lon": 126.01356974014914, "alt_km": 412.978456487509, "timestamp": "2025-12-08T23:34:02.739933+00:00", "meta": {"OBJECT_NAME": "STARLINK-35699", "OBJECT_ID": "2025-268A", "EPOCH": "2025-12-08T14:00:01.999872", "MEAN_MOTION": 15.53218522, "ECCENTRICITY": 8.69e-05, "INCLINATION": 43.0005, "RA_OF_ASC_NODE": 145.5143, "ARG_OF_PERICENTER": 253.0906, "MEAN_ANOMALY": 13.5488, "EPHEMERIS_TYPE": 0, "CLASSIFICATION_TYPE": "U", "NORAD_CAT_ID": 66557, "ELEMENT_SET_NO": 999, "REV_AT_EPOCH": 400, "BSTAR": -0.028931857, "MEAN_MOTION_DOT": -0.01671667, "MEAN_MOTION_DDOT": 0}, "tle": {"line1": "1 66557U 25268A   25342.58335648 -.01671667  00000+0 -28932-1 0  9990", "line2": "2 66557  43.0005 145.5143 0000869 253.0906  13.5488 15.53218522  4001"}}, "geometry": {"type": "Point", "coordinates": [126.01356974014914, -15.374534138210228]}}, {"type": "Feature", "properties": {"norad_id": 66558, "name": "STARLINK-35695", "group": "last-30-days", "lat": -14.131167966906009, "lon": 127.4967777726672, "alt_km": 412.77602953818405, "timestamp": "2025-12-08T23:34:02.739944+00:00", "meta": {"OBJECT_NAME": "STARLINK-35695", "OBJECT_ID": "2025-268B", "EPOCH": "2025-12-08T14:00:01.999872", "MEAN_MOTION": 15.53223015, "ECCENTRICITY": 0.00010472, "INCLINATION": 43, "RA_OF_ASC_NODE": 145.5102, "ARG_OF_PERICENTER": 258.7263, "MEAN_ANOMALY": 9.8298, "EPHEMERIS_TYPE": 0, "CLASSIFICATION_TYPE": "U", "NORAD_CAT_ID": 66558, "ELEMENT_SET_NO": 999, "REV_AT_EPOCH": 400, "BSTAR": -0.029566571, "MEAN_MOTION_DOT": -0.01704804, "MEAN_MOTION_DDOT": 0}, "tle": {"line1": "1 66558U 25268B   25342.58335648 -.01704804  00000+0 -29567-1 0  9996", "line2": "2 66558  43.0000 145.5102 0001047 258.7263   9.8298 15.53223015  4009"}}, "geometry": {"type": "Point", "coordinates": [127.4967777726672, -14.131167966906009]}}, {"type": "Feature", "properties": {"norad_id": 66559, "name": "STARLINK-35419", "group": "last-30-days", "lat": -12.881752783953981, "lon": 128.96077794385664, "alt_km": 412.67501803358573, "timestamp": "2025-12-08T23:34:02.739954+00:00", "meta": {"OBJECT_NAME": "STARLINK-35419", "OBJECT_ID": "2025-268C", "EPOCH": "2025-12-08T14:00:01.999872", "MEAN_MOTION": 15.53226543, "ECCENTRICITY": 0.00016191, "INCLINATION": 43.0001, "RA_OF_ASC_NODE": 145.5062, "ARG_OF_PERICENTER": 260.5728, "MEAN_ANOMALY": 9.8999, "EPHEMERIS_TYPE": 0, "CLASSIFICATION_TYPE": "U", "NORAD_CAT_ID": 66559, "ELEMENT_SET_NO": 999, "REV_AT_EPOCH": 400, "BSTAR": -0.030422417, "MEAN_MOTION_DOT": -0.01749297, "MEAN_MOTION_DDOT": 0}, "tle": {"line1": "1 66559U 25268C   25342.58335648 -.01749297  00000+0 -30422-1 0  9994", "line2": "2 66559  43.0001 145.5062 0001619 260.5728   9.8999 15.53226543  4005"}}, "geometry": {"type": "Point", "coordinates": [128.96077794385664, -12.881752783953981]}}, {"type": "Feature", "properties": {"norad_id": 66560, "name": "STARLINK-35411", "group": "last-30-days", "lat": -11.616751783272651, "lon": 130.41770193223113, "alt_km": 412.50588393538237, "timestamp": "2025-12-08T23:34:02.739964+00:00", "meta": {"OBJECT_NAME": "STARLINK-35411", "OBJECT_ID": "2025-268D", "EPOCH": "2025-12-08T14:00:01.999872", "MEAN_MOTION": 15.5322523, "ECCENTRICITY": 0.00014345, "INCLINATION": 43.0004, "RA_OF_ASC_NODE": 145.5011, "ARG_OF_PERICENTER": 266.5608, "MEAN_ANOMALY": 5.8325, "EPHEMERIS_TYPE": 0, "CLASSIFICATION_TYPE": "U", "NORAD_CAT_ID": 66560, "ELEMENT_SET_NO": 999, "REV_AT_EPOCH": 400, "BSTAR": -0.030624537, "MEAN_MOTION_DOT": -0.01759472, "MEAN_MOTION_DDOT": 0}, "tle": {"line1": "1 66560U 25268D   25342.58335648 -.01759472  00000+0 -30625-1 0  9997", "line2": "2 66560  43.0004 145.5011 0001434 266.5608   5.8325 15.53225230  4003"}}, "geometry": {"type": "Point", "coordinates": [130.41770193223113, -11.616751783272651]}}, {"type": "Feature", "properties": {"norad_id": 66561, "name": "STARLINK-35305", "group": "last-30-days", "lat": -9.051059115244566, "lon": 133.31026394515465, "alt_km": 412.33477307508565, "timestamp": "2025-12-08T23:34:02.739974+00:00", "meta": {"OBJECT_NAME": "STARLINK-35305", "OBJECT_ID": "2025-268E", "EPOCH": "2025-12-08T14:00:01.999872", "MEAN_MOTION": 15.53229368, "ECCENTRICITY": 0.00014639, "INCLINATION": 43.0007, "RA_OF_ASC_NODE": 145.4917, "ARG_OF_PERICENTER": 264.1572, "MEAN_ANOMALY": 12.0674, "EPHEMERIS_TYPE": 0, "CLASSIFICATION_TYPE": "U", "NORAD_CAT_ID": 66561, "ELEMENT_SET_NO": 999, "REV_AT_EPOCH": 395, "BSTAR": -0.030585104, "MEAN_MOTION_DOT": -0.01757707, "MEAN_MOTION_DDOT": 0}, "tle": {"line1": "1 66561U 25268E   25342.58335648 -.01757707  00000+0 -30585-1 0  9992", "line2": "2 66561  43.0007 145.4917 0001463 264.1572  12.0674 15.53229368  3953"}}, "geometry": {"type": "Point", "coordinates": [133.31026394515465, -9.051059115244566]}}, {"type": "Feature", "properties": {"norad_id": 66562, "name": "STARLINK-35579", "group": "last-30-days", "lat": -10.340959616398829, "lon": 131.86480163136437, "alt_km": 412.424511885868, "timestamp": "2025-12-08T23:34:02.739984+00:00", "meta": {"OBJECT_NAME": "STARLINK-35579", "OBJECT_ID": "2025-268F", "EPOCH": "2025-12-08T14:00:01.999872", "MEAN_MOTION": 15.53225575, "ECCENTRICITY": 0.00013151, "INCLINATION": 43.0005, "RA_OF_ASC_NODE": 145.4956, "ARG_OF_PERICENTER": 267.1871, "MEAN_ANOMALY": 7.1244, "EPHEMERIS_TYPE": 0, "CLASSIFICATION_TYPE": "U", "NORAD_CAT_ID": 66562, "ELEMENT_SET_NO": 999, "REV_AT_EPOCH": 400, "BSTAR": -0.030721274, "MEAN_MOTION_DOT": -0.01764375, "MEAN_MOTION_DDOT": 0}, "tle": {"line1": "1 66562U 25268F   25342.58335648 -.01764375  00000+0 -30721-1 0  9994", "line2": "2 66562  43.0005 145.4956 0001315 267.1871   7.1244 15.53225575  4007"}}, "geometry": {"type": "Point", "coordinates": [131.86480163136437, -10.340959616398829]}}]}